EUTELSAT QUANTUM        
1 49056U 21069B   25250.88622397  .00000124  00000+0  00000+0 0  9996
2 49056   0.0463 307.2855 0002174 243.7208 162.9535  1.00269238 15096
EUTELSAT KONNECT VHTS   
1 53765U 22110A   25250.87729727  .00000014  00000+0  00000+0 0  9998
2 53765   0.0529 105.0305 0002732  47.6857 152.9934  1.00268864  3998
EUTELSAT HOTBIRD 13F    
1 54048U 22134A   25250.73663666  .00000084  00000+0  00000+0 0  9990
2 54048   0.0592 292.6832 0001848  69.2253 263.3396  1.00271809 10549
EUTELSAT HOTBIRD 13G    
1 54225U 22146A   25250.87937727  .00000085  00000+0  00000+0 0  9998
2 54225   0.0520 232.1041 0002225 305.4256 139.2390  1.00271190  4637
EUTELSAT 10B            
1 54259U 22157A   25250.87877060  .00000066  00000+0  00000+0 0  9999
2 54259   0.0542 103.4164 0001883 358.8303 211.3240  1.00268798 10181
EUTELSAT 36D            
1 59346U 24059A   25250.77266766  .00000153  00000+0  00000+0 0  9995
2 59346   0.0195 172.4068 0000523 339.3379 149.3712  1.00271740  5317
